ASTRA 1M                
1 33436U 08057A   26183.58642093  .00000131  00000+0  00000+0 0  9999
2 33436   0.3338  82.6897 0005004  31.9461  36.4768  1.00271675 45890
EUTELSAT HOTBIRD 13C    
1 33459U 08065A   26183.43005132 -.00000274  00000+0  00000+0 0  9993
2 33459   2.9870  79.0193 0003440  22.3072 283.6578  1.00271028 47492
EXPRESS-AM44            
1 33595U 09007A   26183.58042640 -.00000081  00000+0  00000+0 0  9998
2 33595   3.5015  78.2137 0004278  14.2901  26.0553  1.00272025 52442
NSS-9                   
1 33749U 09008A   26183.53169872  .00000082  00000+0  00000+0 0  9992
2 33749   1.2991  82.5219 0002363  10.9190 201.6085  1.00272312 63673
TELSTAR 11N             
1 34111U 09009A   26183.43256466 -.00000240  00000+0  00000+0 0  9999
2 34111   0.0169  39.8051 0002689  58.4434 300.3922  1.00272995 46393
WGS F2 (USA 204)        
1 34713U 09017A   26183.38002355  .00000079  00000+0  00000+0 0  9995
2 34713   0.0181  19.2709 0000365 136.0048 319.4720  1.00270793 45772
SES-7 (PROTOSTAR 2)     
1 34941U 09027A   26183.64632365 -.00000334  00000+0  00000+0 0  9993
2 34941   0.0243  57.2397 0001091 119.6970  84.6560  1.00270108 62780
MEASAT-3A               
1 35362U 09032A   26183.59009973 -.00000100  00000+0  00000+0 0  9995
2 35362   0.0235 344.3060 0003204 109.7445 199.0229  1.00271718  8186
GOES 14                 
1 35491U 09033A   26183.62787284 -.00000329  00000+0  00000+0 0  9994
2 35491   1.7275  82.8666 0002230  26.3426 170.2521  1.00105437  6748
FM-5                    
1 35493U 09034A   26183.28041225 -.00000190  00000+0  00000+0 0  9993
2 35493   0.0323 277.6962 0000783  74.9241 302.4819  1.00272883 46792
TERRESTAR-1             
1 35496U 09035A   26183.56066631 -.00000048  00000+0  00000+0 0  9998
2 35496   5.1836  48.7880 0002669  43.1836 279.4504  1.00272588 62287
ASIASAT 5               
1 35696U 09042A   26183.65384313 -.00000297  00000+0  00000+0 0  9994
2 35696   0.0286  69.5047 0001593   4.9604 182.1233  1.00271869 61864
JCSAT-12 (JCSAT-RA)     
1 35755U 09044A   26183.57982653 -.00000317  00000+0  00000+0 0  9997
2 35755   0.0310 291.0548 0000687 249.1332  81.2060  1.00272038 61765
OPTUS D3                
1 35756U 09044B   26183.15183949 -.00000135  00000+0  00000+0 0  9991
2 35756   0.8805 268.5458 0003379 192.6644  29.7835  1.00272143 61710
NIMIQ 5                 
1 35873U 09050A   26183.61678527 -.00000246  00000+0  00000+0 0  9993
2 35873   0.0248 285.3738 0002960 168.5925 336.0220  1.00270300 61490
AMAZONAS 2              
1 35942U 09054A   26183.56829301 -.00000249  00000+0  00000+0 0  9999
2 35942   1.8530  82.8651 0003522  23.0075 307.2888  1.00268849 61338
COMSATBW-1              
1 35943U 09054B   26183.57105932  .00000035  00000+0  00000+0 0  9990
2 35943   0.0687 123.2321 0003111 340.8672  85.1052  1.00272632 61468
NSS-12                  
1 36032U 09058A   26183.58655235  .00000082  00000+0  00000+0 0  9993
2 36032   0.0640 276.8898 0004805 152.3074 119.5778  1.00272183 61079
THOR 6                  
1 36033U 09058B   26183.36858350  .00000000  00000+0  00000+0 0  9993
2 36033   0.0189  65.5487 0002207  58.5260 288.1842  1.00269466 61157
INTELSAT 14 (IS-14)     
1 36097U 09064A   26183.21718853 -.00000263  00000+0  00000+0 0  9999
2 36097   0.0232 295.0890 0002729 169.1235 209.2257  1.00269734 60751
EUTELSAT 36B            
1 36101U 09065A   26183.59257427  .00000123  00000+0  00000+0 0  9996
2 36101   0.5274  81.2751 0006131  19.6771  83.5072  1.00269591 60865
INTELSAT 15 (IS-15)     
1 36106U 09067A   26183.59942553 -.00000175  00000+0  00000+0 0  9992
2 36106   0.0167 346.7739 0002495 114.4066 120.3937  1.00272797 41389
WGS F3 (USA 211)        
1 36108U 09068A   26183.48169733  .00000074  00000+0  00000+0 0  9991
2 36108   0.3096  85.7176 0000791  41.4348 196.7937  1.00272327 46740
DIRECTV 12              
1 36131U 09075A   26183.27711890 -.00000093  00000+0  00000+0 0  9991
2 36131   0.0140 126.9668 0000334   0.0217 150.3693  1.00271870 46709
BEIDOU-2 G1             
1 36287U 10001A   26183.62535115 -.00000271  00000+0  00000+0 0  9995
2 36287   4.3279  60.3591 0002087 309.0419 276.8710  1.00271395 60320
SDO                     
1 36395U 10005A   26183.25044652 -.00000081  00000+0  00000+0 0  9998
2 36395  34.6806  86.1151 0001495  53.7669 128.3250  1.00270409 60215
INTELSAT 16 (IS-16)     
1 36397U 10006A   26183.42493796 -.00000234  00000+0  00000+0 0  9997
2 36397   0.0092  41.9781 0002472  75.3467 239.9198  1.00272658 59802
EWS-G2 (GOES 15)        
1 36411U 10008A   26183.65966087  .00000031  00000+0  00000+0 0  9993
2 36411   1.3177  82.6392 0005385  46.4265  92.5823  1.00268378 59798
ECHOSTAR 14             
1 36499U 10010A   26183.55901963  .00000011  00000+0  00000+0 0  9991
2 36499   0.0181 344.6028 0002250 107.3739 270.9653  1.00271328 46702
SES-1                   
1 36516U 10016A   26183.41999793 -.00000104  00000+0  00000+0 0  9994
2 36516   0.0458 283.6950 0002907 172.4470 234.5203  1.00272132 59186
ASTRA 3B                
1 36581U 10021A   26183.58728759  .00000147  00000+0  00000+0 0  9998
2 36581   1.5086  83.3701 0004224  14.5855  57.5689  1.00271199 59023
COMSATBW-2              
1 36582U 10021B   26183.58520758  .00000099  00000+0  00000+0 0  9994
2 36582   0.0460 170.1194 0002605 301.2565  33.1378  1.00270407 59116
