OBJECT_NAME,OBJECT_ID,EPOCH,MEAN_MOTION,ECCENTRICITY,INCLINATION,RA_OF_ASC_NODE,ARG_OF_PERICENTER,MEAN_ANOMALY,EPHEMERIS_TYPE,CLASSIFICATION_TYPE,NORAD_CAT_ID,ELEMENT_SET_NO,REV_AT_EPOCH,BSTAR,MEAN_MOTION_DOT,MEAN_MOTION_DDOT
ASTRA 1M,2008-057A,2026-07-02T14:04:26.768352,1.00271675,.00050046,0.3338,82.6897,31.9461,36.4768,0,U,33436,999,4589,0,.131E-5,0
EUTELSAT HOTBIRD 13C,2008-065A,2026-07-02T10:19:16.434048,1.00271028,.00034407,2.9870,79.0193,22.3072,283.6578,0,U,33459,999,4749,0,-.274E-5,0
EXPRESS-AM44,2009-007A,2026-07-02T13:55:48.840960,1.00272025,.0004278,3.5015,78.2137,14.2901,26.0553,0,U,33595,999,5244,0,-.81E-6,0
NSS-9,2009-008A,2026-07-02T12:45:38.769408,1.00272312,.00023636,1.2991,82.5219,10.9190,201.6085,0,U,33749,999,6367,0,.82E-6,0
TELSTAR 11N,2009-009A,2026-07-02T10:22:53.586624,1.00272995,.00026893,0.0169,39.8051,58.4434,300.3922,0,U,34111,999,4639,0,-.24E-5,0
WGS F2 (USA 204),2009-017A,2026-07-02T09:07:14.034720,1.00270793,.00003656,0.0181,19.2709,136.0048,319.4720,0,U,34713,999,4577,0,.79E-6,0
SES-7 (PROTOSTAR 2),2009-027A,2026-07-02T15:30:42.363360,1.00270108,.00010917,0.0243,57.2397,119.6970,84.6560,0,U,34941,999,6278,0,-.334E-5,0
MEASAT-3A,2009-032A,2026-07-02T14:09:44.616672,1.00271718,.00032043,0.0235,344.3060,109.7445,199.0229,0,U,35362,999,818,0,-.1E-5,0
GOES 14,2009-033A,2026-07-02T15:04:08.213376,1.00105437,.00022301,1.7275,82.8666,26.3426,170.2521,0,U,35491,999,674,0,-.329E-5,0
FM-5,2009-034A,2026-07-02T06:43:47.618400,1.00272883,.00007831,0.0323,277.6962,74.9241,302.4819,0,U,35493,999,4679,0,-.19E-5,0
TERRESTAR-1,2009-035A,2026-07-02T13:27:21.569184,1.00272588,.00026692,5.1836,48.7880,43.1836,279.4504,0,U,35496,999,6228,0,-.48E-6,0
ASIASAT 5,2009-042A,2026-07-02T15:41:32.046432,1.00271869,.00015935,0.0286,69.5047,4.9604,182.1233,0,U,35696,999,6186,0,-.297E-5,0
JCSAT-12 (JCSAT-RA),2009-044A,2026-07-02T13:54:57.012192,1.00272038,.00006879,0.0310,291.0548,249.1332,81.2060,0,U,35755,999,6176,0,-.317E-5,0
OPTUS D3,2009-044B,2026-07-02T03:38:38.931936,1.00272143,.00033799,0.8805,268.5458,192.6644,29.7835,0,U,35756,999,6171,0,-.135E-5,0
NIMIQ 5,2009-050A,2026-07-02T14:48:10.247328,1.00270300,.00029604,0.0248,285.3738,168.5925,336.0220,0,U,35873,999,6149,0,-.246E-5,0
AMAZONAS 2,2009-054A,2026-07-02T13:38:20.516064,1.00268849,.00035229,1.8530,82.8651,23.0075,307.2888,0,U,35942,999,6133,0,-.249E-5,0
COMSATBW-1,2009-054B,2026-07-02T13:42:19.525248,1.00272632,.00031112,0.0687,123.2321,340.8672,85.1052,0,U,35943,999,6146,0,.35E-6,0
NSS-12,2009-058A,2026-07-02T14:04:38.123040,1.00272183,.00048055,0.0640,276.8898,152.3074,119.5778,0,U,36032,999,6107,0,.82E-6,0
THOR 6,2009-058B,2026-07-02T08:50:45.614400,1.00269466,.00022076,0.0189,65.5487,58.5260,288.1842,0,U,36033,999,6115,0,0,0
INTELSAT 14 (IS-14),2009-064A,2026-07-02T05:12:45.088992,1.00269734,.00027292,0.0232,295.0890,169.1235,209.2257,0,U,36097,999,6075,0,-.263E-5,0
EUTELSAT 36B,2009-065A,2026-07-02T14:13:18.416928,1.00269591,.0006131,0.5274,81.2751,19.6771,83.5072,0,U,36101,999,6086,0,.123E-5,0
INTELSAT 15 (IS-15),2009-067A,2026-07-02T14:23:10.365792,1.00272797,.00024952,0.0167,346.7739,114.4066,120.3937,0,U,36106,999,4138,0,-.175E-5,0
WGS F3 (USA 211),2009-068A,2026-07-02T11:33:38.649312,1.00272327,.00007914,0.3096,85.7176,41.4348,196.7937,0,U,36108,999,4674,0,.74E-6,0
DIRECTV 12,2009-075A,2026-07-02T06:39:03.072960,1.00271870,.00003344,0.0140,126.9668,0.0217,150.3693,0,U,36131,999,4670,0,-.93E-6,0
BEIDOU-2 G1,2010-001A,2026-07-02T15:00:30.339360,1.00271395,.0002087,4.3279,60.3591,309.0419,276.8710,0,U,36287,999,6032,0,-.271E-5,0
SDO,2010-005A,2026-07-02T06:00:38.579328,1.00270409,.00014959,34.6806,86.1151,53.7669,128.3250,0,U,36395,999,6021,0,-.81E-6,0
INTELSAT 16 (IS-16),2010-006A,2026-07-02T10:11:54.639744,1.00272658,.00024728,0.0092,41.9781,75.3467,239.9198,0,U,36397,999,5980,0,-.234E-5,0
EWS-G2 (GOES 15),2010-008A,2026-07-02T15:49:54.699168,1.00268378,.00053855,1.3177,82.6392,46.4265,92.5823,0,U,36411,999,5979,0,.31E-6,0
ECHOSTAR 14,2010-010A,2026-07-02T13:24:59.296032,1.00271328,.00022505,0.0181,344.6028,107.3739,270.9653,0,U,36499,999,4670,0,.11E-6,0
SES-1,2010-016A,2026-07-02T10:04:47.821152,1.00272132,.00029073,0.0458,283.6950,172.4470,234.5203,0,U,36516,999,5918,0,-.104E-5,0
ASTRA 3B,2010-021A,2026-07-02T14:05:41.647776,1.00271199,.00042244,1.5086,83.3701,14.5855,57.5689,0,U,36581,999,5902,0,.147E-5,0
COMSATBW-2,2010-021B,2026-07-02T14:02:41.934912,1.00270407,.00026055,0.0460,170.1194,301.2565,33.1378,0,U,36582,999,5911,0,.99E-6,0
